[{"OBJECT_NAME":"FLOCK 4Q-11","OBJECT_ID":"2023-174T","EPOCH":"2026-04-05T11:54:46.018944","MEAN_MOTION":15.46698271,"ECCENTRICITY":0.00067384,"INCLINATION":97.3877,"RA_OF_ASC_NODE":182.6093,"ARG_OF_PERICENTER":73.48,"MEAN_ANOMALY":286.7189,"EPHEMERIS_TYPE":0,"CLASSIFICATION_TYPE":"U","NORAD_CAT_ID":58273,"ELEMENT_SET_NO":999,"REV_AT_EPOCH":13434,"BSTAR":0.0005364783,"MEAN_MOTION_DOT":0.00026788,"MEAN_MOTION_DDOT":0},{"OBJECT_NAME":"FLOCK 4Q-36","OBJECT_ID":"2023-174U","EPOCH":"2026-04-05T11:54:42.598368","MEAN_MOTION":15.5306606,"ECCENTRICITY":0.00066614,"INCLINATION":97.3853,"RA_OF_ASC_NODE":185.5141,"ARG_OF_PERICENTER":57.4916,"MEAN_ANOMALY":302.698,"EPHEMERIS_TYPE":0,"CLASSIFICATION_TYPE":"U","NORAD_CAT_ID":58274,"ELEMENT_SET_NO":999,"REV_AT_EPOCH":13453,"BSTAR":0.00072559964,"MEAN_MOTION_DOT":0.00045482,"MEAN_MOTION_DDOT":0},{"OBJECT_NAME":"FLOCK 4Q-12","OBJECT_ID":"2023-174V","EPOCH":"2026-04-05T12:37:44.329728","MEAN_MOTION":15.57377553,"ECCENTRICITY":0.00027468,"INCLINATION":97.3848,"RA_OF_ASC_NODE":185.5332,"ARG_OF_PERICENTER":49.027,"MEAN_ANOMALY":311.1223,"EPHEMERIS_TYPE":0,"CLASSIFICATION_TYPE":"U","NORAD_CAT_ID":58275,"ELEMENT_SET_NO":999,"REV_AT_EPOCH":13456,"BSTAR":0.00165875,"MEAN_MOTION_DOT":0.00122972,"MEAN_MOTION_DDOT":0},{"OBJECT_NAME":"FLOCK 4Q-28","OBJECT_ID":"2023-174AA","EPOCH":"2026-04-05T11:43:37.541280","MEAN_MOTION":15.50944694,"ECCENTRICITY":0.00057003,"INCLINATION":97.3882,"RA_OF_ASC_NODE":184.5425,"ARG_OF_PERICENTER":64.9712,"MEAN_ANOMALY":295.2132,"EPHEMERIS_TYPE":0,"CLASSIFICATION_TYPE":"U","NORAD_CAT_ID":58280,"ELEMENT_SET_NO":999,"REV_AT_EPOCH":13446,"BSTAR":0.00070411662,"MEAN_MOTION_DOT":0.00040876,"MEAN_MOTION_DDOT":0},{"OBJECT_NAME":"FLOCK 4Q-27","OBJECT_ID":"2023-174AC","EPOCH":"2026-04-05T03:54:09.085824","MEAN_MOTION":15.50843041,"ECCENTRICITY":0.00053683,"INCLINATION":97.382,"RA_OF_ASC_NODE":183.7232,"ARG_OF_PERICENTER":64.015,"MEAN_ANOMALY":296.1654,"EPHEMERIS_TYPE":0,"CLASSIFICATION_TYPE":"U","NORAD_CAT_ID":58282,"ELEMENT_SET_NO":999,"REV_AT_EPOCH":13442,"BSTAR":0.00064520942,"MEAN_MOTION_DOT":0.00037294,"MEAN_MOTION_DDOT":0},{"OBJECT_NAME":"FLOCK 4Q-26","OBJECT_ID":"2023-174AE","EPOCH":"2026-04-05T11:47:35.581056","MEAN_MOTION":15.52839647,"ECCENTRICITY":0.00062796,"INCLINATION":97.3874,"RA_OF_ASC_NODE":185.5923,"ARG_OF_PERICENTER":62.3005,"MEAN_ANOMALY":297.8885,"EPHEMERIS_TYPE":0,"CLASSIFICATION_TYPE":"U","NORAD_CAT_ID":58284,"ELEMENT_SET_NO":999,"REV_AT_EPOCH":13453,"BSTAR":0.00067033241,"MEAN_MOTION_DOT":0.00041645,"MEAN_MOTION_DDOT":0},{"OBJECT_NAME":"FLOCK 4Q-31","OBJECT_ID":"2023-174AF","EPOCH":"2026-04-05T04:56:18.024288","MEAN_MOTION":15.52657461,"ECCENTRICITY":0.00063229,"INCLINATION":97.3917,"RA_OF_ASC_NODE":184.9424,"ARG_OF_PERICENTER":66.6901,"MEAN_ANOMALY":293.5017,"EPHEMERIS_TYPE":0,"CLASSIFICATION_TYPE":"U","NORAD_CAT_ID":58285,"ELEMENT_SET_NO":999,"REV_AT_EPOCH":13444,"BSTAR":0.00077679875,"MEAN_MOTION_DOT":0.00047999,"MEAN_MOTION_DDOT":0},{"OBJECT_NAME":"FLOCK 4Q-30","OBJECT_ID":"2023-174AG","EPOCH":"2026-04-05T04:33:43.415712","MEAN_MOTION":15.52870756,"ECCENTRICITY":0.00049385,"INCLINATION":97.3931,"RA_OF_ASC_NODE":185.1224,"ARG_OF_PERICENTER":68.279,"MEAN_ANOMALY":291.8989,"EPHEMERIS_TYPE":0,"CLASSIFICATION_TYPE":"U","NORAD_CAT_ID":58286,"ELEMENT_SET_NO":999,"REV_AT_EPOCH":13445,"BSTAR":0.00071428665,"MEAN_MOTION_DOT":0.00044434,"MEAN_MOTION_DDOT":0},{"OBJECT_NAME":"PELICAN-1","OBJECT_ID":"2023-174AS","EPOCH":"2026-04-05T04:49:12.819648","MEAN_MOTION":15.64484982,"ECCENTRICITY":0.00090473,"INCLINATION":97.4004,"RA_OF_ASC_NODE":191.2079,"ARG_OF_PERICENTER":220.1647,"MEAN_ANOMALY":139.8944,"EPHEMERIS_TYPE":0,"CLASSIFICATION_TYPE":"U","NORAD_CAT_ID":58296,"ELEMENT_SET_NO":999,"REV_AT_EPOCH":13470,"BSTAR":0.0017266498,"MEAN_MOTION_DOT":0.00169203,"MEAN_MOTION_DDOT":0},{"OBJECT_NAME":"FLOCK 4Q-29","OBJECT_ID":"2023-174BA","EPOCH":"2026-04-05T05:45:43.554816","MEAN_MOTION":15.51478751,"ECCENTRICITY":0.0005716,"INCLINATION":97.3923,"RA_OF_ASC_NODE":184.712,"ARG_OF_PERICENTER":58.0953,"MEAN_ANOMALY":302.0854,"EPHEMERIS_TYPE":0,"CLASSIFICATION_TYPE":"U","NORAD_CAT_ID":58304,"ELEMENT_SET_NO":999,"REV_AT_EPOCH":13443,"BSTAR":0.00070825,"MEAN_MOTION_DOT":0.0004191,"MEAN_MOTION_DDOT":0},{"OBJECT_NAME":"FLOCK 4Q-22","OBJECT_ID":"2023-174BC","EPOCH":"2026-04-05T11:22:36.827040","MEAN_MOTION":15.54539073,"ECCENTRICITY":0.00044367,"INCLINATION":97.3815,"RA_OF_ASC_NODE":185.2166,"ARG_OF_PERICENTER":57.7407,"MEAN_ANOMALY":302.4276,"EPHEMERIS_TYPE":0,"CLASSIFICATION_TYPE":"U","NORAD_CAT_ID":58306,"ELEMENT_SET_NO":999,"REV_AT_EPOCH":13455,"BSTAR":0.00073873799,"MEAN_MOTION_DOT":0.00048841,"MEAN_MOTION_DDOT":0},{"OBJECT_NAME":"FLOCK 4Q-23","OBJECT_ID":"2023-174BD","EPOCH":"2026-04-05T05:53:21.360768","MEAN_MOTION":15.57941906,"ECCENTRICITY":0.0005065,"INCLINATION":97.3934,"RA_OF_ASC_NODE":186.7225,"ARG_OF_PERICENTER":53.2202,"MEAN_ANOMALY":306.9517,"EPHEMERIS_TYPE":0,"CLASSIFICATION_TYPE":"U","NORAD_CAT_ID":58307,"ELEMENT_SET_NO":999,"REV_AT_EPOCH":13456,"BSTAR":0.00062548,"MEAN_MOTION_DOT":0.00046864,"MEAN_MOTION_DDOT":0},{"OBJECT_NAME":"FLOCK 4Q-33","OBJECT_ID":"2023-174BE","EPOCH":"2026-04-05T13:01:09.740640","MEAN_MOTION":15.53375811,"ECCENTRICITY":0.00058479,"INCLINATION":97.3859,"RA_OF_ASC_NODE":185.1932,"ARG_OF_PERICENTER":45.58,"MEAN_ANOMALY":314.593,"EPHEMERIS_TYPE":0,"CLASSIFICATION_TYPE":"U","NORAD_CAT_ID":58308,"ELEMENT_SET_NO":999,"REV_AT_EPOCH":13454,"BSTAR":0.00064050421,"MEAN_MOTION_DOT":0.00040554,"MEAN_MOTION_DDOT":0},{"OBJECT_NAME":"FLOCK 4Q-35","OBJECT_ID":"2023-174BF","EPOCH":"2026-04-05T05:24:59.438016","MEAN_MOTION":15.52292652,"ECCENTRICITY":0.0005609,"INCLINATION":97.3884,"RA_OF_ASC_NODE":184.9961,"ARG_OF_PERICENTER":61.1321,"MEAN_ANOMALY":299.0494,"EPHEMERIS_TYPE":0,"CLASSIFICATION_TYPE":"U","NORAD_CAT_ID":58309,"ELEMENT_SET_NO":999,"REV_AT_EPOCH":13447,"BSTAR":0.00070371,"MEAN_MOTION_DOT":0.00042873,"MEAN_MOTION_DDOT":0},{"OBJECT_NAME":"FLOCK 4Q-7","OBJECT_ID":"2023-174BQ","EPOCH":"2026-04-05T05:08:22.267104","MEAN_MOTION":15.5123355,"ECCENTRICITY":0.00061788,"INCLINATION":97.3905,"RA_OF_ASC_NODE":184.4807,"ARG_OF_PERICENTER":50.4119,"MEAN_ANOMALY":309.7677,"EPHEMERIS_TYPE":0,"CLASSIFICATION_TYPE":"U","NORAD_CAT_ID":58318,"ELEMENT_SET_NO":999,"REV_AT_EPOCH":13442,"BSTAR":0.00069274469,"MEAN_MOTION_DOT":0.00040633,"MEAN_MOTION_DDOT":0},{"OBJECT_NAME":"FLOCK 4Q-2","OBJECT_ID":"2023-174BS","EPOCH":"2026-04-05T12:59:55.104000","MEAN_MOTION":15.46572619,"ECCENTRICITY":0.00063884,"INCLINATION":97.3831,"RA_OF_ASC_NODE":182.4345,"ARG_OF_PERICENTER":54.0256,"MEAN_ANOMALY":306.1585,"EPHEMERIS_TYPE":0,"CLASSIFICATION_TYPE":"U","NORAD_CAT_ID":58320,"ELEMENT_SET_NO":999,"REV_AT_EPOCH":13436,"BSTAR":0.00055394552,"MEAN_MOTION_DOT":0.00027544,"MEAN_MOTION_DDOT":0}]
