FLOCK 4Q-11             
1 58273U 23174T   26095.49636596  .00026788  00000+0  53648-3 0  9991
2 58273  97.3877 182.6093 0006738  73.4800 286.7189 15.46698271134348
FLOCK 4Q-36             
1 58274U 23174U   26095.49632637  .00045482  00000+0  72560-3 0  9990
2 58274  97.3853 185.5141 0006661  57.4916 302.6980 15.53066060134535
FLOCK 4Q-12             
1 58275U 23174V   26095.52620752  .00122972  00000+0  16588-2 0  9997
2 58275  97.3848 185.5332 0002746  49.0270 311.1223 15.57377553134566
FLOCK 4Q-28             
1 58280U 23174AA  26095.48862895  .00040876  00000+0  70412-3 0  9993
2 58280  97.3882 184.5425 0005700  64.9712 295.2132 15.50944694134461
FLOCK 4Q-27             
1 58282U 23174AC  26095.16260516  .00037294  00000+0  64521-3 0  9996
2 58282  97.3820 183.7232 0005368  64.0150 296.1654 15.50843041134428
FLOCK 4Q-26             
1 58284U 23174AE  26095.49138404  .00041645  00000+0  67033-3 0  9990
2 58284  97.3874 185.5923 0006279  62.3005 297.8885 15.52839647134533
FLOCK 4Q-31             
1 58285U 23174AF  26095.20576417  .00047999  00000+0  77680-3 0  9997
2 58285  97.3917 184.9424 0006322  66.6901 293.5017 15.52657461134444
FLOCK 4Q-30             
1 58286U 23174AG  26095.19008583  .00044434  00000+0  71429-3 0  9996
2 58286  97.3931 185.1224 0004938  68.2790 291.8989 15.52870756134451
PELICAN-1               
1 58296U 23174AS  26095.20084282  .00169203  00000+0  17266-2 0  9999
2 58296  97.4004 191.2079 0009047 220.1647 139.8944 15.64484982134701
FLOCK 4Q-29             
1 58304U 23174BA  26095.24008744  .00041910  00000+0  70825-3 0  9997
2 58304  97.3923 184.7120 0005716  58.0953 302.0854 15.51478751134438
FLOCK 4Q-22             
1 58306U 23174BC  26095.47403735  .00048841  00000+0  73874-3 0  9990
2 58306  97.3815 185.2166 0004436  57.7407 302.4276 15.54539073134557
FLOCK 4Q-23             
1 58307U 23174BD  26095.24538612  .00046864  00000+0  62548-3 0  9998
2 58307  97.3934 186.7225 0005065  53.2202 306.9517 15.57941906134568
FLOCK 4Q-33             
1 58308U 23174BE  26095.54247385  .00040554  00000+0  64050-3 0  9996
2 58308  97.3859 185.1932 0005847  45.5800 314.5930 15.53375811134543
FLOCK 4Q-35             
1 58309U 23174BF  26095.22568794  .00042873  00000+0  70371-3 0  9991
2 58309  97.3884 184.9961 0005609  61.1321 299.0494 15.52292652134473
FLOCK 4Q-7              
1 58318U 23174BQ  26095.21414661  .00040633  00000+0  69274-3 0  9995
2 58318  97.3905 184.4807 0006178  50.4119 309.7677 15.51233550134427
FLOCK 4Q-2              
1 58320U 23174BS  26095.54161000  .00027544  00000+0  55395-3 0  9995
2 58320  97.3831 182.4345 0006388  54.0256 306.1585 15.46572619134366
